{
"type": "FeatureCollection",
"name": "studieomraade",
"crs": { "type": "name", "properties": { "name": "urn:ogc:def:crs:OGC:1.3:CRS84" } },
"features": [
{ "type": "Feature", "properties": { "navn": "Limfjorden ved Aalborg (testomraade)", "beskriv": "Syntetisk/forenklet afgraensning - kun til test, ikke autoritativ kystlinje." }, "geometry": { "type": "Polygon", "coordinates": [ [ [ 9.874117, 57.061924 ], [ 9.874153, 57.06182 ], [ 9.874207, 57.061718 ], [ 9.874279, 57.06162 ], [ 9.874369, 57.061526 ], [ 9.874475, 57.061437 ], [ 9.874597, 57.061354 ], [ 9.874732, 57.061278 ], [ 9.874881, 57.06121 ], [ 9.875042, 57.06115 ], [ 9.875212, 57.061099 ], [ 9.875391, 57.061058 ], [ 9.875577, 57.061026 ], [ 9.908952, 57.056258 ], [ 9.908997, 57.056251 ], [ 9.910371, 57.056016 ], [ 9.910416, 57.056007 ], [ 9.921664, 57.053758 ], [ 9.921831, 57.053729 ], [ 9.922002, 57.053708 ], [ 9.922176, 57.053696 ], [ 9.922351, 57.053692 ], [ 9.922526, 57.053696 ], [ 9.935704, 57.054355 ], [ 9.935915, 57.054372 ], [ 9.936122, 57.054401 ], [ 9.936321, 57.054442 ], [ 9.958667, 57.059805 ], [ 9.958714, 57.059816 ], [ 9.960146, 57.060112 ], [ 9.960243, 57.060129 ], [ 9.961699, 57.060341 ], [ 9.961798, 57.060352 ], [ 9.963286, 57.060481 ], [ 9.963387, 57.060487 ], [ 9.964189, 57.060511 ], [ 9.964378, 57.060522 ], [ 9.964565, 57.060542 ], [ 9.964747, 57.060573 ], [ 9.964923, 57.060612 ], [ 9.965091, 57.060661 ], [ 9.965249, 57.060718 ], [ 9.965397, 57.060783 ], [ 9.965533, 57.060856 ], [ 9.965655, 57.060935 ], [ 9.965763, 57.06102 ], [ 9.966117, 57.061332 ], [ 9.966172, 57.061376 ], [ 9.969649, 57.063856 ], [ 9.969712, 57.063896 ], [ 9.973619, 57.066178 ], [ 9.973688, 57.066215 ], [ 9.977988, 57.068278 ], [ 9.978064, 57.06831 ], [ 9.982714, 57.070133 ], [ 9.982795, 57.070162 ], [ 9.987751, 57.071728 ], [ 9.987838, 57.071752 ], [ 9.993052, 57.073045 ], [ 9.993142, 57.073064 ], [ 9.998565, 57.074073 ], [ 9.998658, 57.074087 ], [ 10.004236, 57.074801 ], [ 10.004331, 57.074811 ], [ 10.010011, 57.075223 ], [ 10.010108, 57.075227 ], [ 10.015834, 57.075334 ], [ 10.015931, 57.075333 ], [ 10.021649, 57.075134 ], [ 10.021746, 57.075128 ], [ 10.027401, 57.074624 ], [ 10.027495, 57.074613 ], [ 10.033032, 57.073809 ], [ 10.033124, 57.073793 ], [ 10.038489, 57.072697 ], [ 10.038578, 57.072676 ], [ 10.04372, 57.071299 ], [ 10.043804, 57.071273 ], [ 10.048673, 57.069628 ], [ 10.048753, 57.069598 ], [ 10.053301, 57.067701 ], [ 10.053375, 57.067666 ], [ 10.05756, 57.065535 ], [ 10.057627, 57.065497 ], [ 10.061408, 57.063153 ], [ 10.061468, 57.063111 ], [ 10.064808, 57.060576 ], [ 10.064861, 57.060532 ], [ 10.067728, 57.057831 ], [ 10.067773, 57.057784 ], [ 10.07014, 57.054942 ], [ 10.070176, 57.054893 ], [ 10.07202, 57.051938 ], [ 10.072047, 57.051888 ], [ 10.073351, 57.048849 ], [ 10.073368, 57.048797 ], [ 10.074119, 57.045703 ], [ 10.074127, 57.045651 ], [ 10.074318, 57.042532 ], [ 10.074316, 57.042479 ], [ 10.073946, 57.039365 ], [ 10.073935, 57.039312 ], [ 10.073006, 57.036233 ], [ 10.072985, 57.036181 ], [ 10.071508, 57.033166 ], [ 10.071478, 57.033116 ], [ 10.069466, 57.030195 ], [ 10.069427, 57.030146 ], [ 10.0669, 57.027346 ], [ 10.066853, 57.0273 ], [ 10.063835, 57.024649 ], [ 10.06378, 57.024605 ], [ 10.0603, 57.022128 ], [ 10.060237, 57.022088 ], [ 10.05633, 57.019808 ], [ 10.05626, 57.019771 ], [ 10.051962, 57.017712 ], [ 10.051886, 57.017679 ], [ 10.047239, 57.015858 ], [ 10.047158, 57.01583 ], [ 10.042207, 57.014267 ], [ 10.042121, 57.014242 ], [ 10.036913, 57.012951 ], [ 10.036823, 57.012932 ], [ 10.031408, 57.011925 ], [ 10.031315, 57.01191 ], [ 10.025746, 57.011198 ], [ 10.025651, 57.011188 ], [ 10.019981, 57.010777 ], [ 10.019884, 57.010772 ], [ 10.014168, 57.010666 ], [ 10.014071, 57.010666 ], [ 10.008362, 57.010866 ], [ 10.008266, 57.010872 ], [ 10.002621, 57.011375 ], [ 10.002526, 57.011386 ], [ 9.996998, 57.012188 ], [ 9.996906, 57.012204 ], [ 9.991549, 57.013298 ], [ 9.99146, 57.013319 ], [ 9.986324, 57.014694 ], [ 9.986239, 57.01472 ], [ 9.981375, 57.016363 ], [ 9.981296, 57.016393 ], [ 9.97675, 57.018287 ], [ 9.976676, 57.018322 ], [ 9.972492, 57.02045 ], [ 9.972424, 57.020488 ], [ 9.968642, 57.02283 ], [ 9.968582, 57.022871 ], [ 9.965239, 57.025404 ], [ 9.965186, 57.025448 ], [ 9.962314, 57.028147 ], [ 9.962269, 57.028194 ], [ 9.959895, 57.031034 ], [ 9.959859, 57.031083 ], [ 9.958007, 57.034035 ], [ 9.95798, 57.034086 ], [ 9.956667, 57.037124 ], [ 9.95665, 57.037176 ], [ 9.956187, 57.039056 ], [ 9.956153, 57.03916 ], [ 9.956099, 57.039261 ], [ 9.956029, 57.039358 ], [ 9.95594, 57.039452 ], [ 9.955836, 57.03954 ], [ 9.955717, 57.039622 ], [ 9.955583, 57.039698 ], [ 9.955436, 57.039766 ], [ 9.955278, 57.039826 ], [ 9.95511, 57.039878 ], [ 9.954934, 57.03992 ], [ 9.954751, 57.039953 ], [ 9.954562, 57.039975 ], [ 9.954371, 57.039988 ], [ 9.954179, 57.039991 ], [ 9.953986, 57.039983 ], [ 9.953797, 57.039965 ], [ 9.953611, 57.039937 ], [ 9.953431, 57.0399 ], [ 9.946336, 57.038196 ], [ 9.946286, 57.038185 ], [ 9.944782, 57.037876 ], [ 9.94468, 57.037858 ], [ 9.94315, 57.037642 ], [ 9.943045, 57.037631 ], [ 9.941454, 57.037504 ], [ 9.941401, 57.0375 ], [ 9.921454, 57.036503 ], [ 9.92141, 57.036501 ], [ 9.92009, 57.036467 ], [ 9.920002, 57.036467 ], [ 9.918703, 57.036496 ], [ 9.918616, 57.036501 ], [ 9.917327, 57.036592 ], [ 9.917241, 57.036601 ], [ 9.915972, 57.036755 ], [ 9.915887, 57.036767 ], [ 9.914627, 57.036985 ], [ 9.914585, 57.036993 ], [ 9.900395, 57.039831 ], [ 9.900216, 57.039861 ], [ 9.868888, 57.044337 ], [ 9.868699, 57.044359 ], [ 9.868506, 57.04437 ], [ 9.868312, 57.044371 ], [ 9.868119, 57.044362 ], [ 9.867929, 57.044343 ], [ 9.867743, 57.044313 ], [ 9.867563, 57.044274 ], [ 9.867391, 57.044225 ], [ 9.867228, 57.044168 ], [ 9.867077, 57.044102 ], [ 9.866938, 57.044028 ], [ 9.866814, 57.043947 ], [ 9.866704, 57.04386 ], [ 9.86661, 57.043767 ], [ 9.864342, 57.041237 ], [ 9.864296, 57.041191 ], [ 9.860272, 57.037634 ], [ 9.860218, 57.03759 ], [ 9.855575, 57.034266 ], [ 9.855512, 57.034225 ], [ 9.850295, 57.031164 ], [ 9.850226, 57.031128 ], [ 9.844485, 57.02836 ], [ 9.844409, 57.028327 ], [ 9.838199, 57.025879 ], [ 9.838117, 57.025851 ], [ 9.831498, 57.023746 ], [ 9.831412, 57.023722 ], [ 9.824446, 57.021981 ], [ 9.824356, 57.021962 ], [ 9.817112, 57.020601 ], [ 9.817019, 57.020587 ], [ 9.809566, 57.01962 ], [ 9.809471, 57.01961 ], [ 9.80188, 57.019046 ], [ 9.801784, 57.019041 ], [ 9.794128, 57.018885 ], [ 9.794031, 57.018885 ], [ 9.786384, 57.019139 ], [ 9.786288, 57.019144 ], [ 9.778723, 57.019805 ], [ 9.778629, 57.019816 ], [ 9.771219, 57.020877 ], [ 9.771126, 57.020893 ], [ 9.763942, 57.022345 ], [ 9.763853, 57.022366 ], [ 9.756964, 57.024194 ], [ 9.756879, 57.024219 ], [ 9.75035, 57.026407 ], [ 9.75027, 57.026437 ], [ 9.744166, 57.028963 ], [ 9.744092, 57.028997 ], [ 9.73847, 57.031836 ], [ 9.738402, 57.031874 ], [ 9.733317, 57.035 ], [ 9.733256, 57.035042 ], [ 9.728757, 57.038424 ], [ 9.728704, 57.038469 ], [ 9.724833, 57.042075 ], [ 9.724788, 57.042122 ], [ 9.721584, 57.045918 ], [ 9.721548, 57.045967 ], [ 9.719041, 57.049916 ], [ 9.719014, 57.049967 ], [ 9.717229, 57.054031 ], [ 9.717211, 57.054083 ], [ 9.716166, 57.058223 ], [ 9.716157, 57.058275 ], [ 9.715861, 57.062451 ], [ 9.715862, 57.062504 ], [ 9.716319, 57.066675 ], [ 9.71633, 57.066727 ], [ 9.717535, 57.070854 ], [ 9.717555, 57.070906 ], [ 9.719497, 57.074948 ], [ 9.719526, 57.074999 ], [ 9.722187, 57.078918 ], [ 9.722226, 57.078966 ], [ 9.72558, 57.082725 ], [ 9.725627, 57.082771 ], [ 9.729642, 57.086332 ], [ 9.729697, 57.086376 ], [ 9.734335, 57.089705 ], [ 9.734397, 57.089746 ], [ 9.739613, 57.092811 ], [ 9.739682, 57.092848 ], [ 9.745426, 57.09562 ], [ 9.745502, 57.095654 ], [ 9.751718, 57.098106 ], [ 9.751799, 57.098135 ], [ 9.758427, 57.100243 ], [ 9.758514, 57.100267 ], [ 9.765491, 57.102012 ], [ 9.765581, 57.102031 ], [ 9.772839, 57.103395 ], [ 9.772932, 57.103409 ], [ 9.780401, 57.104379 ], [ 9.780496, 57.104388 ], [ 9.788104, 57.104954 ], [ 9.788201, 57.104958 ], [ 9.795874, 57.105115 ], [ 9.795971, 57.105114 ], [ 9.803636, 57.10486 ], [ 9.803732, 57.104855 ], [ 9.811314, 57.104193 ], [ 9.811409, 57.104182 ], [ 9.818834, 57.103118 ], [ 9.818927, 57.103102 ], [ 9.826125, 57.101647 ], [ 9.826214, 57.101626 ], [ 9.833114, 57.099794 ], [ 9.833199, 57.099768 ], [ 9.839735, 57.097576 ], [ 9.839815, 57.097547 ], [ 9.845924, 57.095016 ], [ 9.845999, 57.094982 ], [ 9.851622, 57.092138 ], [ 9.85169, 57.0921 ], [ 9.856773, 57.088969 ], [ 9.856833, 57.088928 ], [ 9.861327, 57.08554 ], [ 9.86138, 57.085496 ], [ 9.865242, 57.081885 ], [ 9.865287, 57.081838 ], [ 9.868479, 57.078038 ], [ 9.868515, 57.077989 ], [ 9.871008, 57.074037 ], [ 9.871035, 57.073987 ], [ 9.872803, 57.069921 ], [ 9.872821, 57.069869 ], [ 9.87385, 57.065728 ], [ 9.873858, 57.065675 ], [ 9.874101, 57.06203 ], [ 9.874117, 57.061924 ] ] ] } }
]
}
